CCSDS_OMM_VERS = 2.0
CREATION_DATE  = 
ORIGINATOR     = 

OBJECT_NAME    = 2025-274C
OBJECT_ID      = 2025-274C
CENTER_NAME    = EARTH
REF_FRAME      = TEME
TIME_SYSTEM    = UTC
MEAN_ELEMENT_THEORY = SGP/SGP4

EPOCH          = 2025-12-18T18:52:16.086720
MEAN_MOTION    = 14.91933830
ECCENTRICITY   = .00105386
INCLINATION    = 97.7400
RA_OF_ASC_NODE = 279.8704
ARG_OF_PERICENTER = 234.9183
MEAN_ANOMALY   = 125.1049

EPHEMERIS_TYPE = 0
CLASSIFICATION_TYPE = U
NORAD_CAT_ID   = 66652
ELEMENT_SET_NO = 999
REV_AT_EPOCH   = 330
BSTAR          = .17679469E-3
MEAN_MOTION_DOT = .1735E-4
MEAN_MOTION_DDOT = 0

CCSDS_OMM_VERS = 2.0
CREATION_DATE  = 
ORIGINATOR     = 

OBJECT_NAME    = 2025-274D
OBJECT_ID      = 2025-274D
CENTER_NAME    = EARTH
REF_FRAME      = TEME
TIME_SYSTEM    = UTC
MEAN_ELEMENT_THEORY = SGP/SGP4

EPOCH          = 2025-12-18T20:28:43.471488
MEAN_MOTION    = 14.91933925
ECCENTRICITY   = .00114401
INCLINATION    = 97.7396
RA_OF_ASC_NODE = 279.9361
ARG_OF_PERICENTER = 230.8702
MEAN_ANOMALY   = 129.1501

EPHEMERIS_TYPE = 0
CLASSIFICATION_TYPE = U
NORAD_CAT_ID   = 66653
ELEMENT_SET_NO = 999
REV_AT_EPOCH   = 331
BSTAR          = .158257E-3
MEAN_MOTION_DOT = .1547E-4
MEAN_MOTION_DDOT = 0

CCSDS_OMM_VERS = 2.0
CREATION_DATE  = 
ORIGINATOR     = 

OBJECT_NAME    = JACK E
OBJECT_ID      = 2025-274E
CENTER_NAME    = EARTH
REF_FRAME      = TEME
TIME_SYSTEM    = UTC
MEAN_ELEMENT_THEORY = SGP/SGP4

EPOCH          = 2025-12-18T20:25:04.095840
MEAN_MOTION    = 14.92115116
ECCENTRICITY   = .00119932
INCLINATION    = 97.7400
RA_OF_ASC_NODE = 279.9401
ARG_OF_PERICENTER = 232.7773
MEAN_ANOMALY   = 127.2352

EPHEMERIS_TYPE = 0
CLASSIFICATION_TYPE = U
NORAD_CAT_ID   = 66654
ELEMENT_SET_NO = 999
REV_AT_EPOCH   = 331
BSTAR          = .1596937E-3
MEAN_MOTION_DOT = .1569E-4
MEAN_MOTION_DDOT = 0

CCSDS_OMM_VERS = 2.0
CREATION_DATE  = 
ORIGINATOR     = 

OBJECT_NAME    = 2025-274F
OBJECT_ID      = 2025-274F
CENTER_NAME    = EARTH
REF_FRAME      = TEME
TIME_SYSTEM    = UTC
MEAN_ELEMENT_THEORY = SGP/SGP4

EPOCH          = 2025-12-18T18:53:07.339200
MEAN_MOTION    = 14.91174217
ECCENTRICITY   = .00049938
INCLINATION    = 97.7329
RA_OF_ASC_NODE = 279.8662
ARG_OF_PERICENTER = 2.8245
MEAN_ANOMALY   = 357.3001

EPHEMERIS_TYPE = 0
CLASSIFICATION_TYPE = U
NORAD_CAT_ID   = 66655
ELEMENT_SET_NO = 999
REV_AT_EPOCH   = 330
BSTAR          = -.7422034E-5
MEAN_MOTION_DOT = -.129E-5
MEAN_MOTION_DDOT = 0

CCSDS_OMM_VERS = 2.0
CREATION_DATE  = 
ORIGINATOR     = 

OBJECT_NAME    = 2025-274G
OBJECT_ID      = 2025-274G
CENTER_NAME    = EARTH
REF_FRAME      = TEME
TIME_SYSTEM    = UTC
MEAN_ELEMENT_THEORY = SGP/SGP4

EPOCH          = 2025-12-18T20:21:04.908672
MEAN_MOTION    = 14.92309639
ECCENTRICITY   = .00125395
INCLINATION    = 97.7400
RA_OF_ASC_NODE = 279.9430
ARG_OF_PERICENTER = 234.5061
MEAN_ANOMALY   = 125.4989

EPHEMERIS_TYPE = 0
CLASSIFICATION_TYPE = U
NORAD_CAT_ID   = 66656
ELEMENT_SET_NO = 999
REV_AT_EPOCH   = 331
BSTAR          = .1776725E-3
MEAN_MOTION_DOT = .1761E-4
MEAN_MOTION_DDOT = 0

CCSDS_OMM_VERS = 2.0
CREATION_DATE  = 
ORIGINATOR     = 

OBJECT_NAME    = SPIRONE
OBJECT_ID      = 2025-274H
CENTER_NAME    = EARTH
REF_FRAME      = TEME
TIME_SYSTEM    = UTC
MEAN_ELEMENT_THEORY = SGP/SGP4

EPOCH          = 2025-12-18T20:17:15.327456
MEAN_MOTION    = 14.92488768
ECCENTRICITY   = .00107229
INCLINATION    = 97.7399
RA_OF_ASC_NODE = 279.9459
ARG_OF_PERICENTER = 252.9623
MEAN_ANOMALY   = 107.0422

EPHEMERIS_TYPE = 0
CLASSIFICATION_TYPE = U
NORAD_CAT_ID   = 66657
ELEMENT_SET_NO = 999
REV_AT_EPOCH   = 331
BSTAR          = .17540552E-3
MEAN_MOTION_DOT = .1745E-4
MEAN_MOTION_DDOT = 0

CCSDS_OMM_VERS = 2.0
CREATION_DATE  = 
ORIGINATOR     = 

OBJECT_NAME    = 2025-274J
OBJECT_ID      = 2025-274J
CENTER_NAME    = EARTH
REF_FRAME      = TEME
TIME_SYSTEM    = UTC
MEAN_ELEMENT_THEORY = SGP/SGP4

EPOCH          = 2025-12-18T20:13:33.445344
MEAN_MOTION    = 14.92659104
ECCENTRICITY   = .00112459
INCLINATION    = 97.7398
RA_OF_ASC_NODE = 279.9493
ARG_OF_PERICENTER = 256.1466
MEAN_ANOMALY   = 103.8502

EPHEMERIS_TYPE = 0
CLASSIFICATION_TYPE = U
NORAD_CAT_ID   = 66658
ELEMENT_SET_NO = 999
REV_AT_EPOCH   = 331
BSTAR          = .17520649E-3
MEAN_MOTION_DOT = .1751E-4
MEAN_MOTION_DDOT = 0

CCSDS_OMM_VERS = 2.0
CREATION_DATE  = 
ORIGINATOR     = 

OBJECT_NAME    = JACK K
OBJECT_ID      = 2025-274K
CENTER_NAME    = EARTH
REF_FRAME      = TEME
TIME_SYSTEM    = UTC
MEAN_ELEMENT_THEORY = SGP/SGP4

EPOCH          = 2025-12-18T16:56:33.329184
MEAN_MOTION    = 14.92843404
ECCENTRICITY   = .00119534
INCLINATION    = 97.7400
RA_OF_ASC_NODE = 279.8218
ARG_OF_PERICENTER = 258.1182
MEAN_ANOMALY   = 101.8697

EPHEMERIS_TYPE = 0
CLASSIFICATION_TYPE = U
NORAD_CAT_ID   = 66659
ELEMENT_SET_NO = 999
REV_AT_EPOCH   = 329
BSTAR          = .18040546E-3
MEAN_MOTION_DOT = .1813E-4
MEAN_MOTION_DDOT = 0

CCSDS_OMM_VERS = 2.0
CREATION_DATE  = 
ORIGINATOR     = 

OBJECT_NAME    = K-HERO
OBJECT_ID      = 2025-274L
CENTER_NAME    = EARTH
REF_FRAME      = TEME
TIME_SYSTEM    = UTC
MEAN_ELEMENT_THEORY = SGP/SGP4

EPOCH          = 2025-12-18T18:29:52.806048
MEAN_MOTION    = 14.92995215
ECCENTRICITY   = .00125308
INCLINATION    = 97.7404
RA_OF_ASC_NODE = 279.8915
ARG_OF_PERICENTER = 258.5821
MEAN_ANOMALY   = 101.3991

EPHEMERIS_TYPE = 0
CLASSIFICATION_TYPE = U
NORAD_CAT_ID   = 66660
ELEMENT_SET_NO = 999
REV_AT_EPOCH   = 330
BSTAR          = .19949035E-3
MEAN_MOTION_DOT = .2019E-4
MEAN_MOTION_DDOT = 0

CCSDS_OMM_VERS = 2.0
CREATION_DATE  = 
ORIGINATOR     = 

OBJECT_NAME    = SNUGLITE-III
OBJECT_ID      = 2025-274M
CENTER_NAME    = EARTH
REF_FRAME      = TEME
TIME_SYSTEM    = UTC
MEAN_ELEMENT_THEORY = SGP/SGP4

EPOCH          = 2025-12-18T18:26:46.957920
MEAN_MOTION    = 14.93129694
ECCENTRICITY   = .00131618
INCLINATION    = 97.7403
RA_OF_ASC_NODE = 279.8934
ARG_OF_PERICENTER = 259.7936
MEAN_ANOMALY   = 100.1799

EPHEMERIS_TYPE = 0
CLASSIFICATION_TYPE = U
NORAD_CAT_ID   = 66661
ELEMENT_SET_NO = 999
REV_AT_EPOCH   = 330
BSTAR          = .18501071E-3
MEAN_MOTION_DOT = .1875E-4
MEAN_MOTION_DDOT = 0

CCSDS_OMM_VERS = 2.0
CREATION_DATE  = 
ORIGINATOR     = 

OBJECT_NAME    = 2025-274N
OBJECT_ID      = 2025-274N
CENTER_NAME    = EARTH
REF_FRAME      = TEME
TIME_SYSTEM    = UTC
MEAN_ELEMENT_THEORY = SGP/SGP4

EPOCH          = 2025-12-18T18:25:34.023360
MEAN_MOTION    = 14.93184285
ECCENTRICITY   = .00135776
INCLINATION    = 97.7403
RA_OF_ASC_NODE = 279.8949
ARG_OF_PERICENTER = 259.5008
MEAN_ANOMALY   = 100.4682

EPHEMERIS_TYPE = 0
CLASSIFICATION_TYPE = U
NORAD_CAT_ID   = 66662
ELEMENT_SET_NO = 999
REV_AT_EPOCH   = 330
BSTAR          = .19777946E-3
MEAN_MOTION_DOT = .2012E-4
MEAN_MOTION_DDOT = 0

CCSDS_OMM_VERS = 2.0
CREATION_DATE  = 
ORIGINATOR     = 

OBJECT_NAME    = KSLV-II R/B
OBJECT_ID      = 2025-274P
CENTER_NAME    = EARTH
REF_FRAME      = TEME
TIME_SYSTEM    = UTC
MEAN_ELEMENT_THEORY = SGP/SGP4

EPOCH          = 2025-12-18T18:32:36.408768
MEAN_MOTION    = 14.97428391
ECCENTRICITY   = .00563898
INCLINATION    = 97.7433
RA_OF_ASC_NODE = 280.0578
ARG_OF_PERICENTER = 298.2889
MEAN_ANOMALY   = 61.2650

EPHEMERIS_TYPE = 0
CLASSIFICATION_TYPE = U
NORAD_CAT_ID   = 66663
ELEMENT_SET_NO = 999
REV_AT_EPOCH   = 331
BSTAR          = .13157145E-2
MEAN_MOTION_DOT = .15777E-3
MEAN_MOTION_DDOT = 0

