2025-274C               
1 66652U 25274C   25352.78629730  .00001735  00000+0  17679-3 0  9992
2 66652  97.7400 279.8704 0010538 234.9183 125.1049 14.91933830  3307
2025-274D               
1 66653U 25274D   25352.85328092  .00001547  00000+0  15826-3 0  9991
2 66653  97.7396 279.9361 0011440 230.8702 129.1501 14.91933925  3310
JACK E                  
1 66654U 25274E   25352.85074185  .00001569  00000+0  15969-3 0  9995
2 66654  97.7400 279.9401 0011993 232.7773 127.2352 14.92115116  3312
2025-274F               
1 66655U 25274F   25352.78689050 -.00000129  00000+0 -74220-5 0  9991
2 66655  97.7329 279.8662 0004993   2.8245 357.3001 14.91174217  3305
2025-274G               
1 66656U 25274G   25352.84797348  .00001761  00000+0  17767-3 0  9991
2 66656  97.7400 279.9430 0012539 234.5061 125.4989 14.92309639  3314
SPIRONE                 
1 66657U 25274H   25352.84531629  .00001745  00000+0  17541-3 0  9992
2 66657  97.7399 279.9459 0010722 252.9623 107.0422 14.92488768  3312
2025-274J               
1 66658U 25274J   25352.84274821  .00001751  00000+0  17521-3 0  9996
2 66658  97.7398 279.9493 0011245 256.1466 103.8502 14.92659104  3319
JACK K                  
1 66659U 25274K   25352.70594131  .00001813  00000+0  18041-3 0  9998
2 66659  97.7400 279.8218 0011953 258.1182 101.8697 14.92843404  3299
K-HERO                  
1 66660U 25274L   25352.77075007  .00002019  00000+0  19949-3 0  9990
2 66660  97.7404 279.8915 0012530 258.5821 101.3991 14.92995215  3307
SNUGLITE-III            
1 66661U 25274M   25352.76859905  .00001875  00000+0  18501-3 0  9999
2 66661  97.7403 279.8934 0013161 259.7936 100.1799 14.93129694  3303
2025-274N               
1 66662U 25274N   25352.76775490  .00002012  00000+0  19778-3 0  9997
2 66662  97.7403 279.8949 0013577 259.5008 100.4682 14.93184285  3300
KSLV-II R/B             
1 66663U 25274P   25352.77264362  .00015777  00000+0  13157-2 0  9996
2 66663  97.7433 280.0578 0056389 298.2889  61.2650 14.97428391  3314
